{
  "norad_id": 64547,
  "name": "TRANSPORTER-14 OBJECT V",
  "history": [
    {
      "epoch": "2026-03-28T20:12:50.851008Z",
      "apogee_km": 495.87998531127414,
      "perigee_km": 493.10138193878447,
      "latitude_deg": -4.0506503005617554e-05,
      "longitude_deg": 74.52602553856804,
      "height_km": 498.30092522134413,
      "semi_major_axis_km": 6872.627683625029,
      "eccentricity": 0.00020215,
      "inclination_deg": 97.4518,
      "raan_deg": 203.9948,
      "arg_perigee_deg": 121.1534,
      "mean_anomaly_deg": 238.9901,
      "mean_motion_rev_day": 15.23766903
    },
    {
      "epoch": "2026-03-29T00:56:32.189280Z",
      "apogee_km": 495.8872749883749,
      "perigee_km": 493.06400571571885,
      "latitude_deg": 2.2143146947443784e-05,
      "longitude_deg": 3.6054963468024224,
      "height_km": 498.28549803430633,
      "semi_major_axis_km": 6872.612640352047,
      "eccentricity": 0.0002054,
      "inclination_deg": 97.452,
      "raan_deg": 204.1907,
      "arg_perigee_deg": 120.5924,
      "mean_anomaly_deg": 239.5516,
      "mean_motion_rev_day": 15.23771906
    },
    {
      "epoch": "2026-03-29T07:14:47.187456Z",
      "apogee_km": 495.85934274718875,
      "perigee_km": 493.0326493609118,
      "latitude_deg": -2.5170198180638256e-05,
      "longitude_deg": -90.9548926697301,
      "height_km": 498.24414411376677,
      "semi_major_axis_km": 6872.5829960540495,
      "eccentricity": 0.00020565,
      "inclination_deg": 97.452,
      "raan_deg": 204.4517,
      "arg_perigee_deg": 120.0019,
      "mean_anomaly_deg": 240.1422,
      "mean_motion_rev_day": 15.23781765
    },
    {
      "epoch": "2026-03-30T06:53:12.575904Z",
      "apogee_km": 495.7828940526906,
      "perigee_km": 492.95966765091725,
      "latitude_deg": 1.8628531388196607e-05,
      "longitude_deg": -85.55275902209102,
      "height_km": 498.1494942232296,
      "semi_major_axis_km": 6872.508280851804,
      "eccentricity": 0.0002054,
      "inclination_deg": 97.4523,
      "raan_deg": 205.4305,
      "arg_perigee_deg": 119.1126,
      "mean_anomaly_deg": 241.0317,
      "mean_motion_rev_day": 15.23806614
    },
    {
      "epoch": "2026-03-30T21:04:15.083904Z",
      "apogee_km": 495.71953499901974,
      "perigee_km": 492.92120780653295,
      "latitude_deg": 4.935451535448062e-05,
      "longitude_deg": 61.69137025063733,
      "height_km": 498.07611415659613,
      "semi_major_axis_km": 6872.4573714027765,
      "eccentricity": 0.00020359,
      "inclination_deg": 97.4524,
      "raan_deg": 206.0176,
      "arg_perigee_deg": 118.3454,
      "mean_anomaly_deg": 241.7989,
      "mean_motion_rev_day": 15.23823546
    },
    {
      "epoch": "2026-03-31T20:42:38.136960Z",
      "apogee_km": 495.6480511046884,
      "perigee_km": 492.8454930024436,
      "latitude_deg": -8.979726308366555e-05,
      "longitude_deg": 67.10318580604522,
      "height_km": 497.9680778058851,
      "semi_major_axis_km": 6872.383772053566,
      "eccentricity": 0.0002039,
      "inclination_deg": 97.4527,
      "raan_deg": 206.9963,
      "arg_perigee_deg": 116.7118,
      "mean_anomaly_deg": 243.4327,
      "mean_motion_rev_day": 15.23848025
    },
    {
      "epoch": "2026-04-01T06:09:58.973184Z",
      "apogee_km": 495.6348041203091,
      "perigee_km": 492.81438692150823,
      "latitude_deg": -2.461137419428311e-05,
      "longitude_deg": -74.73047517246943,
      "height_km": 497.9376315152455,
      "semi_major_axis_km": 6872.361595520909,
      "eccentricity": 0.0002052,
      "inclination_deg": 97.4529,
      "raan_deg": 207.3878,
      "arg_perigee_deg": 116.1564,
      "mean_anomaly_deg": 243.9884,
      "mean_motion_rev_day": 15.23855401
    },
    {
      "epoch": "2026-04-02T07:22:53.508864Z",
      "apogee_km": 495.5866689195409,
      "perigee_km": 492.68670686872247,
      "latitude_deg": -4.015730035944365e-05,
      "longitude_deg": -92.94925338328619,
      "height_km": 497.813111581564,
      "semi_major_axis_km": 6872.273687894131,
      "eccentricity": 0.00021099,
      "inclination_deg": 97.4534,
      "raan_deg": 208.4318,
      "arg_perigee_deg": 113.8018,
      "mean_anomaly_deg": 246.344,
      "mean_motion_rev_day": 15.2388464
    },
    {
      "epoch": "2026-04-04T06:39:30.275136Z",
      "apogee_km": 495.3492703198317,
      "perigee_km": 492.51151880992074,
      "latitude_deg": 3.1678116627796725e-05,
      "longitude_deg": -82.08624783522168,
      "height_km": 497.5364985460825,
      "semi_major_axis_km": 6872.067394564876,
      "eccentricity": 0.00020647,
      "inclination_deg": 97.4536,
      "raan_deg": 210.3896,
      "arg_perigee_deg": 111.2729,
      "mean_anomaly_deg": 248.8729,
      "mean_motion_rev_day": 15.23953259
    },
    {
      "epoch": "2026-04-05T14:10:31.021248Z",
      "apogee_km": 495.2833278952776,
      "perigee_km": 492.3822571276705,
      "latitude_deg": 6.115138162186358e-05,
      "longitude_deg": 165.17148576624078,
      "height_km": 497.3878910411612,
      "semi_major_axis_km": 6871.969792511474,
      "eccentricity": 0.00021108,
      "inclination_deg": 97.4537,
      "raan_deg": 211.6948,
      "arg_perigee_deg": 108.651,
      "mean_anomaly_deg": 251.4957,
      "mean_motion_rev_day": 15.23985726
    }
  ]
}